{
    "links": {
        "self": "http://www.neowsapp.com/rest/v1/neo/3943361?api_key=iIulBulltgU6a56xZRHN4H3l9WmuAYTsLGpBGhQ2"
    },
    "id": "3943361",
    "neo_reference_id": "3943361",
    "name": "(2019 YW1)",
    "designation": "2019 YW1",
    "nasa_jpl_url": "http://ssd.jpl.nasa.gov/sbdb.cgi?sstr=3943361",
    "absolute_magnitude_h": 23.7,
    "estimated_diameter": {
        "kilometers": {
            "estimated_diameter_min": 0.0483676488,
            "estimated_diameter_max": 0.1081533507
        },
        "meters": {
            "estimated_diameter_min": 48.3676488219,
            "estimated_diameter_max": 108.1533506775
        },
        "miles": {
            "estimated_diameter_min": 0.0300542543,
            "estimated_diameter_max": 0.0672033557
        },
        "feet": {
            "estimated_diameter_min": 158.6865169607,
            "estimated_diameter_max": 354.8338390368
        }
    },
    "is_potentially_hazardous_asteroid": false,
    "close_approach_data": [
        {
            "close_approach_date": "1904-07-19",
            "close_approach_date_full": "1904-Jul-19 03:03",
            "epoch_date_close_approach": -2065553820000,
            "relative_velocity": {
                "kilometers_per_second": "31.4059252223",
                "kilometers_per_hour": "113061.3308002732",
                "miles_per_hour": "70251.9141297586"
            },
            "miss_distance": {
                "astronomical": "0.3845749874",
                "lunar": "149.5996700986",
                "kilometers": "57531598.970316838",
                "miles": "35748477.9212068444"
            },
            "orbiting_body": "Earth"
        },
        {
            "close_approach_date": "1954-12-11",
            "close_approach_date_full": "1954-Dec-11 12:21",
            "epoch_date_close_approach": -475155540000,
            "relative_velocity": {
                "kilometers_per_second": "30.0155722979",
                "kilometers_per_hour": "108056.0602724548",
                "miles_per_hour": "67141.8336731817"
            },
            "miss_distance": {
                "astronomical": "0.3223082657",
                "lunar": "125.3779153573",
                "kilometers": "48216630.032114059",
                "miles": "29960424.6186056542"
            },
            "orbiting_body": "Earth"
        },
        {
            "close_approach_date": "2019-12-30",
            "close_approach_date_full": "2019-Dec-30 07:16",
            "epoch_date_close_approach": 1577690160000,
            "relative_velocity": {
                "kilometers_per_second": "19.6732651073",
                "kilometers_per_hour": "70823.754386393",
                "miles_per_hour": "44007.1267185896"
            },
            "miss_distance": {
                "astronomical": "0.0337666113",
                "lunar": "13.1352117957",
                "kilometers": "5051413.127597931",
                "miles": "3138802.5692802078"
            },
            "orbiting_body": "Earth"
        },
        {
            "close_approach_date": "2048-12-25",
            "close_approach_date_full": "2048-Dec-25 15:22",
            "epoch_date_close_approach": 2492522520000,
            "relative_velocity": {
                "kilometers_per_second": "21.9929027026",
                "kilometers_per_hour": "79174.4497294475",
                "miles_per_hour": "49195.9240555003"
            },
            "miss_distance": {
                "astronomical": "0.0728554651",
                "lunar": "28.3407759239",
                "kilometers": "10899022.396819337",
                "miles": "6772338.4798753706"
            },
            "orbiting_body": "Earth"
        }
    ],
    "orbital_data": {
        "orbit_id": "3",
        "orbit_determination_date": "2019-12-31 06:18:33",
        "first_observation_date": "2019-12-21",
        "last_observation_date": "2019-12-30",
        "data_arc_in_days": 9,
        "observations_used": 49,
        "orbit_uncertainty": "8",
        "minimum_orbit_intersection": ".0315342",
        "jupiter_tisserand_invariant": "3.764",
        "epoch_osculation": "2458840.5",
        "eccentricity": ".670608134318804",
        "semi_major_axis": "1.799189915657007",
        "inclination": "2.512409706814679",
        "ascending_node_longitude": "230.2961755082803",
        "orbital_period": "881.4829963091661",
        "perihelion_distance": ".5926385230330553",
        "perihelion_argument": "316.5366207728063",
        "aphelion_distance": "3.005741308280959",
        "perihelion_time": "2458894.766839428379",
        "mean_anomaly": "337.8372784545869",
        "mean_motion": ".4084026595037527",
        "equinox": "J2000",
        "orbit_class": {
            "orbit_class_type": "APO",
            "orbit_class_description": "Near-Earth asteroid orbits which cross the Earth’s orbit similar to that of 1862 Apollo",
            "orbit_class_range": "a (semi-major axis) > 1.0 AU; q (perihelion) < 1.017 AU"
        }
    },
    "is_sentry_object": false
}